IRIDIUM 69 [-]          
1 25319U 98026A   20312.72914416  .00000153  00000-0  43344-4 0  9998
2 25319  86.3978  84.2225 0003506 127.9041 232.2475 14.38870022181026
IRIDIUM 71 [-]          
1 25320U 98026B   20312.78621601  .00000131  00000-0  35749-4 0  9993
2 25320  86.3968  79.4924 0001591 161.4809 198.6448 14.39269469181759
IRIDIUM 73 [-]          
1 25344U 98032C   20312.79670998  .00000128  00000-0  28237-4 0  9990
2 25344  86.4465  38.9682 0001704 104.2911 255.8482 14.49253285186775
IRIDIUM 82 [-]          
1 25467U 98051A   20312.70908055  .00000891  00000-0  64276-4 0  9996
2 25467  86.4029 174.3750 0176236 288.4012  69.8123 14.91023832171430
