<ndm xmlns:xsi="http://www.w3.org/2001/XMLSchema-instance" xsi:noNamespaceSchemaLocation="http://sanaregistry.org/r/ndmxml/ndmxml-1.0-master.xsd">
<omm id="CCSDS_OMM_VERS" version="2.0">
<header>
<COMMENT>GENERATED VIA SPACE-TRACK.ORG API</COMMENT>
<CREATION_DATE>2020-11-08T05:03:59</CREATION_DATE>
<ORIGINATOR>18 SPCS</ORIGINATOR>
</header>
<body>
<segment>
<metadata>
<OBJECT_NAME>IRIDIUM 69</OBJECT_NAME>
<OBJECT_ID>1998-026A</OBJECT_ID>
<CENTER_NAME>EARTH</CENTER_NAME>
<REF_FRAME>TEME</REF_FRAME>
<TIME_SYSTEM>UTC</TIME_SYSTEM>
<MEAN_ELEMENT_THEORY>SGP4</MEAN_ELEMENT_THEORY>
</metadata>
<data>
<meanElements>
<EPOCH>2020-11-07T17:29:58.055424</EPOCH>
<MEAN_MOTION>14.38870022</MEAN_MOTION>
<ECCENTRICITY>0.00035060</ECCENTRICITY>
<INCLINATION>86.3978</INCLINATION>
<RA_OF_ASC_NODE>84.2225</RA_OF_ASC_NODE>
<ARG_OF_PERICENTER>127.9041</ARG_OF_PERICENTER>
<MEAN_ANOMALY>232.2475</MEAN_ANOMALY>
</meanElements>
<tleParameters>
<EPHEMERIS_TYPE>0</EPHEMERIS_TYPE>
<CLASSIFICATION_TYPE>U</CLASSIFICATION_TYPE>
<NORAD_CAT_ID>25319</NORAD_CAT_ID>
<ELEMENT_SET_NO>999</ELEMENT_SET_NO>
<REV_AT_EPOCH>18102</REV_AT_EPOCH>
<BSTAR>0.00004334400000</BSTAR>
<MEAN_MOTION_DOT>0.00000153</MEAN_MOTION_DOT>
<MEAN_MOTION_DDOT>0.0000000000000</MEAN_MOTION_DDOT>
</tleParameters>
<userDefinedParameters>
<USER_DEFINED parameter="SEMIMAJOR_AXIS">7140.371</USER_DEFINED>
<USER_DEFINED parameter="PERIOD">100.078</USER_DEFINED>
<USER_DEFINED parameter="APOAPSIS">764.739</USER_DEFINED>
<USER_DEFINED parameter="PERIAPSIS">759.732</USER_DEFINED>
<USER_DEFINED parameter="OBJECT_TYPE">PAYLOAD</USER_DEFINED>
<USER_DEFINED parameter="RCS_SIZE">LARGE</USER_DEFINED>
<USER_DEFINED parameter="COUNTRY_CODE">US</USER_DEFINED>
<USER_DEFINED parameter="LAUNCH_DATE">1998-05-02</USER_DEFINED>
<USER_DEFINED parameter="SITE">TSC</USER_DEFINED>
<USER_DEFINED parameter="DECAY_DATE"/>
<USER_DEFINED parameter="DECAYED"/>
<USER_DEFINED parameter="FILE">2875047</USER_DEFINED>
<USER_DEFINED parameter="GP_ID">165114492</USER_DEFINED>
</userDefinedParameters>
</data>
</segment>
</body>
</omm>
<omm id="CCSDS_OMM_VERS" version="2.0">
<header>
<COMMENT>GENERATED VIA SPACE-TRACK.ORG API</COMMENT>
<CREATION_DATE>2020-11-07T22:26:10</CREATION_DATE>
<ORIGINATOR>18 SPCS</ORIGINATOR>
</header>
<body>
<segment>
<metadata>
<OBJECT_NAME>IRIDIUM 71</OBJECT_NAME>
<OBJECT_ID>1998-026B</OBJECT_ID>
<CENTER_NAME>EARTH</CENTER_NAME>
<REF_FRAME>TEME</REF_FRAME>
<TIME_SYSTEM>UTC</TIME_SYSTEM>
<MEAN_ELEMENT_THEORY>SGP4</MEAN_ELEMENT_THEORY>
</metadata>
<data>
<meanElements>
<EPOCH>2020-11-07T18:52:09.063264</EPOCH>
<MEAN_MOTION>14.39269469</MEAN_MOTION>
<ECCENTRICITY>0.00015910</ECCENTRICITY>
<INCLINATION>86.3968</INCLINATION>
<RA_OF_ASC_NODE>79.4924</RA_OF_ASC_NODE>
<ARG_OF_PERICENTER>161.4809</ARG_OF_PERICENTER>
<MEAN_ANOMALY>198.6448</MEAN_ANOMALY>
</meanElements>
<tleParameters>
<EPHEMERIS_TYPE>0</EPHEMERIS_TYPE>
<CLASSIFICATION_TYPE>U</CLASSIFICATION_TYPE>
<NORAD_CAT_ID>25320</NORAD_CAT_ID>
<ELEMENT_SET_NO>999</ELEMENT_SET_NO>
<REV_AT_EPOCH>18175</REV_AT_EPOCH>
<BSTAR>0.00003574900000</BSTAR>
<MEAN_MOTION_DOT>0.00000131</MEAN_MOTION_DOT>
<MEAN_MOTION_DDOT>0.0000000000000</MEAN_MOTION_DDOT>
</tleParameters>
<userDefinedParameters>
<USER_DEFINED parameter="SEMIMAJOR_AXIS">7139.050</USER_DEFINED>
<USER_DEFINED parameter="PERIOD">100.050</USER_DEFINED>
<USER_DEFINED parameter="APOAPSIS">762.050</USER_DEFINED>
<USER_DEFINED parameter="PERIAPSIS">759.779</USER_DEFINED>
<USER_DEFINED parameter="OBJECT_TYPE">PAYLOAD</USER_DEFINED>
<USER_DEFINED parameter="RCS_SIZE">LARGE</USER_DEFINED>
<USER_DEFINED parameter="COUNTRY_CODE">US</USER_DEFINED>
<USER_DEFINED parameter="LAUNCH_DATE">1998-05-02</USER_DEFINED>
<USER_DEFINED parameter="SITE">TSC</USER_DEFINED>
<USER_DEFINED parameter="DECAY_DATE"/>
<USER_DEFINED parameter="DECAYED"/>
<USER_DEFINED parameter="FILE">2874860</USER_DEFINED>
<USER_DEFINED parameter="GP_ID">165104255</USER_DEFINED>
</userDefinedParameters>
</data>
</segment>
</body>
</omm>
<omm id="CCSDS_OMM_VERS" version="2.0">
<header>
<COMMENT>GENERATED VIA SPACE-TRACK.ORG API</COMMENT>
<CREATION_DATE>2020-11-08T05:03:59</CREATION_DATE>
<ORIGINATOR>18 SPCS</ORIGINATOR>
</header>
<body>
<segment>
<metadata>
<OBJECT_NAME>IRIDIUM 73</OBJECT_NAME>
<OBJECT_ID>1998-032C</OBJECT_ID>
<CENTER_NAME>EARTH</CENTER_NAME>
<REF_FRAME>TEME</REF_FRAME>
<TIME_SYSTEM>UTC</TIME_SYSTEM>
<MEAN_ELEMENT_THEORY>SGP4</MEAN_ELEMENT_THEORY>
</metadata>
<data>
<meanElements>
<EPOCH>2020-11-07T19:07:15.742272</EPOCH>
<MEAN_MOTION>14.49253285</MEAN_MOTION>
<ECCENTRICITY>0.00017040</ECCENTRICITY>
<INCLINATION>86.4465</INCLINATION>
<RA_OF_ASC_NODE>38.9682</RA_OF_ASC_NODE>
<ARG_OF_PERICENTER>104.2911</ARG_OF_PERICENTER>
<MEAN_ANOMALY>255.8482</MEAN_ANOMALY>
</meanElements>
<tleParameters>
<EPHEMERIS_TYPE>0</EPHEMERIS_TYPE>
<CLASSIFICATION_TYPE>U</CLASSIFICATION_TYPE>
<NORAD_CAT_ID>25344</NORAD_CAT_ID>
<ELEMENT_SET_NO>999</ELEMENT_SET_NO>
<REV_AT_EPOCH>18677</REV_AT_EPOCH>
<BSTAR>0.00002823700000</BSTAR>
<MEAN_MOTION_DOT>0.00000128</MEAN_MOTION_DOT>
<MEAN_MOTION_DDOT>0.0000000000000</MEAN_MOTION_DDOT>
</tleParameters>
<userDefinedParameters>
<USER_DEFINED parameter="SEMIMAJOR_AXIS">7106.225</USER_DEFINED>
<USER_DEFINED parameter="PERIOD">99.361</USER_DEFINED>
<USER_DEFINED parameter="APOAPSIS">729.301</USER_DEFINED>
<USER_DEFINED parameter="PERIAPSIS">726.879</USER_DEFINED>
<USER_DEFINED parameter="OBJECT_TYPE">PAYLOAD</USER_DEFINED>
<USER_DEFINED parameter="RCS_SIZE">LARGE</USER_DEFINED>
<USER_DEFINED parameter="COUNTRY_CODE">US</USER_DEFINED>
<USER_DEFINED parameter="LAUNCH_DATE">1998-05-17</USER_DEFINED>
<USER_DEFINED parameter="SITE">AFWTR</USER_DEFINED>
<USER_DEFINED parameter="DECAY_DATE"/>
<USER_DEFINED parameter="DECAYED"/>
<USER_DEFINED parameter="FILE">2875047</USER_DEFINED>
<USER_DEFINED parameter="GP_ID">165117148</USER_DEFINED>
</userDefinedParameters>
</data>
</segment>
</body>
</omm>
<omm id="CCSDS_OMM_VERS" version="2.0">
<header>
<COMMENT>GENERATED VIA SPACE-TRACK.ORG API</COMMENT>
<CREATION_DATE>2020-11-08T05:03:59</CREATION_DATE>
<ORIGINATOR>18 SPCS</ORIGINATOR>
</header>
<body>
<segment>
<metadata>
<OBJECT_NAME>IRIDIUM 82</OBJECT_NAME>
<OBJECT_ID>1998-051A</OBJECT_ID>
<CENTER_NAME>EARTH</CENTER_NAME>
<REF_FRAME>TEME</REF_FRAME>
<TIME_SYSTEM>UTC</TIME_SYSTEM>
<MEAN_ELEMENT_THEORY>SGP4</MEAN_ELEMENT_THEORY>
</metadata>
<data>
<meanElements>
<EPOCH>2020-11-07T17:01:04.559520</EPOCH>
<MEAN_MOTION>14.91023832</MEAN_MOTION>
<ECCENTRICITY>0.01762360</ECCENTRICITY>
<INCLINATION>86.4029</INCLINATION>
<RA_OF_ASC_NODE>174.3750</RA_OF_ASC_NODE>
<ARG_OF_PERICENTER>288.4012</ARG_OF_PERICENTER>
<MEAN_ANOMALY>69.8123</MEAN_ANOMALY>
</meanElements>
<tleParameters>
<EPHEMERIS_TYPE>0</EPHEMERIS_TYPE>
<CLASSIFICATION_TYPE>U</CLASSIFICATION_TYPE>
<NORAD_CAT_ID>25467</NORAD_CAT_ID>
<ELEMENT_SET_NO>999</ELEMENT_SET_NO>
<REV_AT_EPOCH>17143</REV_AT_EPOCH>
<BSTAR>0.00006427600000</BSTAR>
<MEAN_MOTION_DOT>0.00000891</MEAN_MOTION_DOT>
<MEAN_MOTION_DDOT>0.0000000000000</MEAN_MOTION_DDOT>
</tleParameters>
<userDefinedParameters>
<USER_DEFINED parameter="SEMIMAJOR_AXIS">6972.878</USER_DEFINED>
<USER_DEFINED parameter="PERIOD">96.577</USER_DEFINED>
<USER_DEFINED parameter="APOAPSIS">717.631</USER_DEFINED>
<USER_DEFINED parameter="PERIAPSIS">471.856</USER_DEFINED>
<USER_DEFINED parameter="OBJECT_TYPE">PAYLOAD</USER_DEFINED>
<USER_DEFINED parameter="RCS_SIZE">LARGE</USER_DEFINED>
<USER_DEFINED parameter="COUNTRY_CODE">US</USER_DEFINED>
<USER_DEFINED parameter="LAUNCH_DATE">1998-09-08</USER_DEFINED>
<USER_DEFINED parameter="SITE">AFWTR</USER_DEFINED>
<USER_DEFINED parameter="DECAY_DATE"/>
<USER_DEFINED parameter="DECAYED"/>
<USER_DEFINED parameter="FILE">2875047</USER_DEFINED>
<USER_DEFINED parameter="GP_ID">165114880</USER_DEFINED>
</userDefinedParameters>
</data>
</segment>
</body>
</omm>

</ndm>